[{"OBJECT_NAME":"STARLINK-31444","OBJECT_ID":"2024-049F","EPOCH":"2026-03-09T00:40:58.803168","MEAN_MOTION":15.27576671,"ECCENTRICITY":0.00011949,"INCLINATION":43.0029,"RA_OF_ASC_NODE":77.7673,"ARG_OF_PERICENTER":254.9284,"MEAN_ANOMALY":105.1436,"EPHEMERIS_TYPE":0,"CLASSIFICATION_TYPE":"U","NORAD_CAT_ID":59236,"ELEMENT_SET_NO":999,"REV_AT_EPOCH":11307,"BSTAR":-9.724308e-6,"MEAN_MOTION_DOT":-5.3e-6,"MEAN_MOTION_DDOT":0},{"OBJECT_NAME":"ELECTRON KICK STAGE R\/B","OBJECT_ID":"2024-248B","EPOCH":"2026-03-09T20:49:52.700448","MEAN_MOTION":15.26602112,"ECCENTRICITY":0.00382118,"INCLINATION":97.6105,"RA_OF_ASC_NODE":34.9036,"ARG_OF_PERICENTER":284.4829,"MEAN_ANOMALY":75.2171,"EPHEMERIS_TYPE":0,"CLASSIFICATION_TYPE":"U","NORAD_CAT_ID":62407,"ELEMENT_SET_NO":999,"REV_AT_EPOCH":6727,"BSTAR":0.0006831254,"MEAN_MOTION_DOT":0.00018217,"MEAN_MOTION_DDOT":0}]
